PROGRESS-MS 32          
1 65586U 25204A   25340.02693099  .00014013  00000+0  25886-3 0  9995
2 65586  51.6296 175.7148 0003614 210.2448 149.8333 15.49350538   272
CYGNUS NG-23            
1 65616U 25208A   25340.02693099  .00014013  00000+0  25886-3 0  9993
2 65616  51.6296 175.7148 0003614 210.2448 149.8333 15.49350538   221
DRAGONFLY               
1 65729U 98067XH  25339.92998556  .00170954  00000+0  14111-2 0  9999
2 65729  51.6246 170.5624 0006512 233.7397 126.2998 15.69233632 12097
1998-067XK              
1 65731U 98067XK  25339.83736922  .00115678  00000+0  11848-2 0  9995
2 65731  51.6273 172.2071 0005720 204.6703 155.4018 15.64093983 12065
RSP-03                  
1 65732U 98067XL  25339.79004307  .00146827  00000+0  13603-2 0  9997
2 65732  51.6249 171.8843 0006394 207.4241 152.6418 15.66485796 12070
GHS-01                  
1 65733U 98067XM  25339.76551214  .00227447  00000+0  17020-2 0  9994
2 65733  51.6266 170.9683 0006980 233.1607 126.8751 15.71403318 12085
YOTSUBA-KULOVER         
1 65941U 98067XN  25339.91729736  .00078420  00000+0  10119-2 0  9995
2 65941  51.6277 174.2380 0002019 187.9006 172.1955 15.58286182  8793
BOTAN                   
1 65942U 98067XP  25339.80843050  .00125200  00000+0  14405-2 0  9991
2 65942  51.6268 174.2609 0004095 186.0920 174.0025 15.61079270  8789
E-KAGAKU-1              
1 65943U 98067XQ  25339.85307693  .00076316  00000+0  98695-3 0  9992
2 65943  51.6291 174.5622 0003337 163.5442 196.5659 15.58235285  8789
HRC MONOBLOCK CAMERA    
1 66052U 98067XR  25339.89797376  .00044373  00000+0  68981-3 0  9992
2 66052  51.6285 175.6042 0004196 157.7899 202.3273 15.53474220  7772
HTV-X1                  
1 66174U 25241A   25340.02693099  .00014013  00000+0  25886-3 0  9990
2 66174  51.6296 175.7148 0003614 210.2448 149.8333 15.49350538   513
SZ-21 MODULE            
1 66515U 25246C   25339.50714150  .00038539  00000+0  43081-3 0  9993
2 66515  41.4776  60.1494 0006030 219.3277 140.7125 15.61972458  3313
